{"type": "FeatureCollection", "features": [ {"type": "Feature", "properties": {"norad_id": 39122, "name": "EUTELSAT 117 WEST A", "group": "eutelsat", "lat": 0.013324813642759522, "lon": 11.61694800887401, "alt_km": 35786.845995780655, "timestamp": "2025-12-27T02:10:15.859288+00:00", "meta": {"OBJECT_NAME": "EUTELSAT 117 WEST A", "OBJECT_ID": "2013-012A", "EPOCH": "2025-12-26T15:54:06.664032", "MEAN_MOTION": 1.00270799, "ECCENTRICITY": 0.0002852, "INCLINATION": 0.0154, "RA_OF_ASC_NODE": 330.9469, "ARG_OF_PERICENTER": 308.2848, "MEAN_ANOMALY": 297.9012, "EPHEMERIS_TYPE": 0, "CLASSIFICATION_TYPE": "U", "NORAD_CAT_ID": 39122, "ELEMENT_SET_NO": 999, "REV_AT_EPOCH": 4670, "BSTAR": 0, "MEAN_MOTION_DOT": 9e-08, "MEAN_MOTION_DDOT": 0}, "tle": {"line1": "1 39122U 13012A   25360.66257713  .00000009  00000+0  00000+0 0  9994", "line2": "2 39122   0.0154 330.9469 0002852 308.2848 297.9012  1.00270799 46705"}}, "geometry": {"type": "Point", "coordinates": [11.61694800887401, 0.013324813642759522]}}, {"type": "Feature", "properties": {"norad_id": 39163, "name": "EUTELSAT 7B", "group": "eutelsat", "lat": 0.07115690650464357, "lon": 135.385158949749, "alt_km": 35805.76324237441, "timestamp": "2025-12-27T02:10:15.859300+00:00", "meta": {"OBJECT_NAME": "EUTELSAT 7B", "OBJECT_ID": "2013-022A", "EPOCH": "2025-12-26T08:51:38.739168", "MEAN_MOTION": 1.00271815, "ECCENTRICITY": 0.0004718, "INCLINATION": 0.0666, "RA_OF_ASC_NODE": 12.0633, "ARG_OF_PERICENTER": 310.169, "MEAN_ANOMALY": 272.7878, "EPHEMERIS_TYPE": 0, "CLASSIFICATION_TYPE": "U", "NORAD_CAT_ID": 39163, "ELEMENT_SET_NO": 999, "REV_AT_EPOCH": 4621, "BSTAR": 0, "MEAN_MOTION_DOT": 7e-07, "MEAN_MOTION_DDOT": 0}, "tle": {"line1": "1 39163U 13022A   25360.36919837  .00000070  00000+0  00000+0 0  9997", "line2": "2 39163   0.0666  12.0633 0004718 310.1690 272.7878  1.00271815 46216"}}, "geometry": {"type": "Point", "coordinates": [135.385158949749, 0.07115690650464357]}}, {"type": "Feature", "properties": {"norad_id": 39612, "name": "EXPRESS-AT1", "group": "eutelsat", "lat": -0.009046895562226091, "lon": -175.58353254995455, "alt_km": 35780.582434305186, "timestamp": "2025-12-27T02:10:15.859329+00:00", "meta": {"OBJECT_NAME": "EXPRESS-AT1", "OBJECT_ID": "2014-010A", "EPOCH": "2025-12-26T04:01:38.790048", "MEAN_MOTION": 1.00275867, "ECCENTRICITY": 0.0001356, "INCLINATION": 0.0174, "RA_OF_ASC_NODE": 279.8877, "ARG_OF_PERICENTER": 223.1198, "MEAN_ANOMALY": 68.3278, "EPHEMERIS_TYPE": 0, "CLASSIFICATION_TYPE": "U", "NORAD_CAT_ID": 39612, "ELEMENT_SET_NO": 999, "REV_AT_EPOCH": 4308, "BSTAR": 0, "MEAN_MOTION_DOT": 1e-06, "MEAN_MOTION_DDOT": 0}, "tle": {"line1": "1 39612U 14010A   25360.16781007  .00000100  00000+0  00000+0 0  9992", "line2": "2 39612   0.0174 279.8877 0001356 223.1198  68.3278  1.00275867 43089"}}, "geometry": {"type": "Point", "coordinates": [-175.58353254995455, -0.009046895562226091]}}, {"type": "Feature", "properties": {"norad_id": 39613, "name": "EXPRESS-AT2", "group": "eutelsat", "lat": -0.026892635964504166, "lon": -91.75755115847238, "alt_km": 35779.31123420751, "timestamp": "2025-12-27T02:10:15.859343+00:00", "meta": {"OBJECT_NAME": "EXPRESS-AT2", "OBJECT_ID": "2014-010B", "EPOCH": "2025-12-26T17:10:15.663648", "MEAN_MOTION": 1.00271075, "ECCENTRICITY": 0.0001673, "INCLINATION": 0.0166, "RA_OF_ASC_NODE": 319.7162, "ARG_OF_PERICENTER": 316.3181, "MEAN_ANOMALY": 216.8487, "EPHEMERIS_TYPE": 0, "CLASSIFICATION_TYPE": "U", "NORAD_CAT_ID": 39613, "ELEMENT_SET_NO": 999, "REV_AT_EPOCH": 4277, "BSTAR": 0, "MEAN_MOTION_DOT": -2.59e-06, "MEAN_MOTION_DDOT": 0}, "tle": {"line1": "1 39613U 14010B   25360.71545907 -.00000259  00000+0  00000+0 0  9997", "line2": "2 39613   0.0166 319.7162 0001673 316.3181 216.8487  1.00271075 42775"}}, "geometry": {"type": "Point", "coordinates": [-91.75755115847238, -0.026892635964504166]}}, {"type": "Feature", "properties": {"norad_id": 39773, "name": "EUTELSAT 3B", "group": "eutelsat", "lat": 0.05418862866999439, "lon": 131.42923263856517, "alt_km": 35791.00942111567, "timestamp": "2025-12-27T02:10:15.859355+00:00", "meta": {"OBJECT_NAME": "EUTELSAT 3B", "OBJECT_ID": "2014-030A", "EPOCH": "2025-12-26T08:51:38.739168", "MEAN_MOTION": 1.00270297, "ECCENTRICITY": 0.0004298, "INCLINATION": 0.06, "RA_OF_ASC_NODE": 352.4178, "ARG_OF_PERICENTER": 243.3494, "MEAN_ANOMALY": 355.3551, "EPHEMERIS_TYPE": 0, "CLASSIFICATION_TYPE": "U", "NORAD_CAT_ID": 39773, "ELEMENT_SET_NO": 999, "REV_AT_EPOCH": 4233, "BSTAR": 0, "MEAN_MOTION_DOT": 4.2e-07, "MEAN_MOTION_DDOT": 0}, "tle": {"line1": "1 39773U 14030A   25360.36919837  .00000042  00000+0  00000+0 0  9993", "line2": "2 39773   0.0600 352.4178 0004298 243.3494 355.3551  1.00270297 42336"}}, "geometry": {"type": "Point", "coordinates": [131.42923263856517, 0.05418862866999439]}}, {"type": "Feature", "properties": {"norad_id": 40425, "name": "EUTELSAT 115 WEST B", "group": "eutelsat", "lat": -0.0013794443301865425, "lon": 13.482798205763286, "alt_km": 35785.27023349418, "timestamp": "2025-12-27T02:10:15.859367+00:00", "meta": {"OBJECT_NAME": "EUTELSAT 115 WEST B", "OBJECT_ID": "2015-010B", "EPOCH": "2025-12-26T05:44:38.581152", "MEAN_MOTION": 1.00273604, "ECCENTRICITY": 7.8e-06, "INCLINATION": 0.0077, "RA_OF_ASC_NODE": 147.8651, "ARG_OF_PERICENTER": 258.8043, "MEAN_ANOMALY": 19.571, "EPHEMERIS_TYPE": 0, "CLASSIFICATION_TYPE": "U", "NORAD_CAT_ID": 40425, "ELEMENT_SET_NO": 999, "REV_AT_EPOCH": 3965, "BSTAR": 0, "MEAN_MOTION_DOT": -3e-08, "MEAN_MOTION_DDOT": 0}, "tle": {"line1": "1 40425U 15010B   25360.23933543 -.00000003  00000+0  00000+0 0  9992", "line2": "2 40425   0.0077 147.8651 0000078 258.8043  19.5710  1.00273604 39657"}}, "geometry": {"type": "Point", "coordinates": [13.482798205763286, -0.0013794443301865425]}}, {"type": "Feature", "properties": {"norad_id": 40875, "name": "EUTELSAT 8 WEST B", "group": "eutelsat", "lat": 0.07964852881931536, "lon": 120.36130850017192, "alt_km": 35802.358249581666, "timestamp": "2025-12-27T02:10:15.859379+00:00", "meta": {"OBJECT_NAME": "EUTELSAT 8 WEST B", "OBJECT_ID": "2015-039B", "EPOCH": "2025-12-26T14:42:28.524096", "MEAN_MOTION": 1.00271395, "ECCENTRICITY": 0.0004204, "INCLINATION": 0.0651, "RA_OF_ASC_NODE": 12.1709, "ARG_OF_PERICENTER": 263.5924, "MEAN_ANOMALY": 32.208, "EPHEMERIS_TYPE": 0, "CLASSIFICATION_TYPE": "U", "NORAD_CAT_ID": 40875, "ELEMENT_SET_NO": 999, "REV_AT_EPOCH": 3792, "BSTAR": 0, "MEAN_MOTION_DOT": -4.4e-07, "MEAN_MOTION_DDOT": 0}, "tle": {"line1": "1 40875U 15039B   25360.61283014 -.00000044  00000+0  00000+0 0  9990", "line2": "2 40875   0.0651  12.1709 0004204 263.5924  32.2080  1.00271395 37923"}}, "geometry": {"type": "Point", "coordinates": [120.36130850017192, 0.07964852881931536]}}, {"type": "Feature", "properties": {"norad_id": 41310, "name": "EUTELSAT 9B", "group": "eutelsat", "lat": 0.04279366577786446, "lon": 137.33824322969375, "alt_km": 35801.504430681, "timestamp": "2025-12-27T02:10:15.859390+00:00", "meta": {"OBJECT_NAME": "EUTELSAT 9B", "OBJECT_ID": "2016-005A", "EPOCH": "2025-12-26T08:43:38.553888", "MEAN_MOTION": 1.00269907, "ECCENTRICITY": 0.0004728, "INCLINATION": 0.0277, "RA_OF_ASC_NODE": 48.2901, "ARG_OF_PERICENTER": 227.4289, "MEAN_ANOMALY": 319.2953, "EPHEMERIS_TYPE": 0, "CLASSIFICATION_TYPE": "U", "NORAD_CAT_ID": 41310, "ELEMENT_SET_NO": 999, "REV_AT_EPOCH": 3638, "BSTAR": 0, "MEAN_MOTION_DOT": 8.3e-07, "MEAN_MOTION_DDOT": 0}, "tle": {"line1": "1 41310U 16005A   25360.36364067  .00000083  00000+0  00000+0 0  9991", "line2": "2 41310   0.0277  48.2901 0004728 227.4289 319.2953  1.00269907 36382"}}, "geometry": {"type": "Point", "coordinates": [137.33824322969375, 0.04279366577786446]}}, {"type": "Feature", "properties": {"norad_id": 41382, "name": "EUTELSAT 65 WEST A", "group": "eutelsat", "lat": 0.061547943164423066, "lon": 63.219392151449924, "alt_km": 35794.50048015475, "timestamp": "2025-12-27T02:10:15.859402+00:00", "meta": {"OBJECT_NAME": "EUTELSAT 65 WEST A", "OBJECT_ID": "2016-014A", "EPOCH": "2025-12-26T08:16:36.677280", "MEAN_MOTION": 1.00271228, "ECCENTRICITY": 0.0002373, "INCLINATION": 0.0477, "RA_OF_ASC_NODE": 347.1965, "ARG_OF_PERICENTER": 291.4205, "MEAN_ANOMALY": 235.4476, "EPHEMERIS_TYPE": 0, "CLASSIFICATION_TYPE": "U", "NORAD_CAT_ID": 41382, "ELEMENT_SET_NO": 999, "REV_AT_EPOCH": 3580, "BSTAR": 0, "MEAN_MOTION_DOT": -2.54e-06, "MEAN_MOTION_DDOT": 0}, "tle": {"line1": "1 41382U 16014A   25360.34486895 -.00000254  00000+0  00000+0 0  9993", "line2": "2 41382   0.0477 347.1965 0002373 291.4205 235.4476  1.00271228 35801"}}, "geometry": {"type": "Point", "coordinates": [63.219392151449924, 0.061547943164423066]}}, {"type": "Feature", "properties": {"norad_id": 41589, "name": "EUTELSAT 117 WEST B", "group": "eutelsat", "lat": -0.01248546281451045, "lon": 11.377780573475501, "alt_km": 35786.02065888891, "timestamp": "2025-12-27T02:10:15.859426+00:00", "meta": {"OBJECT_NAME": "EUTELSAT 117 WEST B", "OBJECT_ID": "2016-038B", "EPOCH": "2025-12-26T15:54:06.664032", "MEAN_MOTION": 1.00272425, "ECCENTRICITY": 4.1e-06, "INCLINATION": 0.0412, "RA_OF_ASC_NODE": 183.1816, "ARG_OF_PERICENTER": 48.2612, "MEAN_ANOMALY": 345.4808, "EPHEMERIS_TYPE": 0, "CLASSIFICATION_TYPE": "U", "NORAD_CAT_ID": 41589, "ELEMENT_SET_NO": 999, "REV_AT_EPOCH": 3493, "BSTAR": 0, "MEAN_MOTION_DOT": 1.1e-07, "MEAN_MOTION_DDOT": 0}, "tle": {"line1": "1 41589U 16038B   25360.66257713  .00000011  00000+0  00000+0 0  9998", "line2": "2 41589   0.0412 183.1816 0000041  48.2612 345.4808  1.00272425 34936"}}, "geometry": {"type": "Point", "coordinates": [11.377780573475501, -0.01248546281451045]}}]}